{
  "type": "FeatureCollection",
  "features": [
    {
      "type": "Feature",
      "properties": {
        "norad_id": 34070,
        "name": "COSMOS 2251 DEB",
        "group": "cosmos-2251-debris",
        "lat": -56.525740428138484,
        "lon": -51.704276557556575,
        "alt_km": 632.7112064144039,
        "timestamp": "2025-12-19T16:54:44.656879+00:00",
        "meta_object_name": "COSMOS 2251 DEB",
        "meta_object_id": "1993-036KH",
        "meta_epoch": "2025-12-18T13:53:19.554720",
        "meta_mean_motion": 14.77220288,
        "meta_eccentricity": 0.00183565,
        "meta_inclination": 74.0006,
        "meta_ra_of_asc_node": 104.791,
        "meta_arg_of_pericenter": 221.5741,
        "meta_mean_anomaly": 152.9404,
        "meta_ephemeris_type": 0,
        "meta_classification_type": "U",
        "meta_norad_cat_id": 34070,
        "meta_element_set_no": 999,
        "meta_rev_at_epoch": 88697,
        "meta_bstar": 0.0019519507,
        "meta_mean_motion_dot": 0.00013864,
        "meta_mean_motion_ddot": 0,
        "tle_line1": "1 34070U 93036KH  25352.57869855  .00013864  00000+0  19520-2 0  9995",
        "tle_line2": "2 34070  74.0006 104.7910 0018356 221.5741 152.9404 14.77220288886974"
      },
      "geometry": {
        "type": "Point",
        "coordinates": [
          -51.704276557556575,
          -56.525740428138484
        ]
      }
    },
    {
      "type": "Feature",
      "properties": {
        "norad_id": 34114,
        "name": "COSMOS 2251 DEB",
        "group": "cosmos-2251-debris",
        "lat": -65.75922072788397,
        "lon": -8.769233668537359,
        "alt_km": 713.8591895695672,
        "timestamp": "2025-12-19T16:54:44.656889+00:00",
        "meta_object_name": "COSMOS 2251 DEB",
        "meta_object_id": "1993-036KK",
        "meta_epoch": "2025-12-19T02:32:26.336832",
        "meta_mean_motion": 14.56458707,
        "meta_eccentricity": 0.00477309,
        "meta_inclination": 74.0588,
        "meta_ra_of_asc_node": 31.7684,
        "meta_arg_of_pericenter": 24.1135,
        "meta_mean_anomaly": 6.471,
        "meta_ephemeris_type": 0,
        "meta_classification_type": "U",
        "meta_norad_cat_id": 34114,
        "meta_element_set_no": 999,
        "meta_rev_at_epoch": 87894,
        "meta_bstar": 0.0011404836,
        "meta_mean_motion_dot": 5.121e-05,
        "meta_mean_motion_ddot": 0,
        "tle_line1": "1 34114U 93036KK  25353.10586038  .00005121  00000+0  11405-2 0  9994",
        "tle_line2": "2 34114  74.0588  31.7684 0047730  24.1135   6.4710 14.56458707878944"
      },
      "geometry": {
        "type": "Point",
        "coordinates": [
          -8.769233668537359,
          -65.75922072788397
        ]
      }
    },
    {
      "type": "Feature",
      "properties": {
        "norad_id": 34115,
        "name": "COSMOS 2251 DEB",
        "group": "cosmos-2251-debris",
        "lat": -71.60476010464426,
        "lon": 107.8030884453462,
        "alt_km": 654.8400044435812,
        "timestamp": "2025-12-19T16:54:44.656900+00:00",
        "meta_object_name": "COSMOS 2251 DEB",
        "meta_object_id": "1993-036KL",
        "meta_epoch": "2025-12-18T17:01:08.467392",
        "meta_mean_motion": 14.79566951,
        "meta_eccentricity": 0.00287611,
        "meta_inclination": 74.0061,
        "meta_ra_of_asc_node": 230.1714,
        "meta_arg_of_pericenter": 51.8742,
        "meta_mean_anomaly": 308.502,
        "meta_ephemeris_type": 0,
        "meta_classification_type": "U",
        "meta_norad_cat_id": 34115,
        "meta_element_set_no": 999,
        "meta_rev_at_epoch": 89500,
        "meta_bstar": 0.00067313121,
        "meta_mean_motion_dot": 5.045e-05,
        "meta_mean_motion_ddot": 0,
        "tle_line1": "1 34115U 93036KL  25352.70912578  .00005045  00000+0  67313-3 0  9997",
        "tle_line2": "2 34115  74.0061 230.1714 0028761  51.8742 308.5020 14.79566951895006"
      },
      "geometry": {
        "type": "Point",
        "coordinates": [
          107.8030884453462,
          -71.60476010464426
        ]
      }
    },
    {
      "type": "Feature",
      "properties": {
        "norad_id": 34116,
        "name": "COSMOS 2251 DEB",
        "group": "cosmos-2251-debris",
        "lat": -71.51055047066205,
        "lon": 110.78409995147908,
        "alt_km": 715.7513295879398,
        "timestamp": "2025-12-19T16:54:44.656911+00:00",
        "meta_object_name": "COSMOS 2251 DEB",
        "meta_object_id": "1993-036KM",
        "meta_epoch": "2025-12-18T21:58:57.427680",
        "meta_mean_motion": 14.53010535,
        "meta_eccentricity": 0.00118985,
        "meta_inclination": 74.0393,
        "meta_ra_of_asc_node": 171.1262,
        "meta_arg_of_pericenter": 247.2605,
        "meta_mean_anomaly": 228.0286,
        "meta_ephemeris_type": 0,
        "meta_classification_type": "U",
        "meta_norad_cat_id": 34116,
        "meta_element_set_no": 999,
        "meta_rev_at_epoch": 88576,
        "meta_bstar": 0.00059725979,
        "meta_mean_motion_dot": 2.44e-05,
        "meta_mean_motion_ddot": 0,
        "tle_line1": "1 34116U 93036KM  25352.91594245  .00002440  00000+0  59726-3 0  9993",
        "tle_line2": "2 34116  74.0393 171.1262 0011898 247.2605 228.0286 14.53010535885765"
      },
      "geometry": {
        "type": "Point",
        "coordinates": [
          110.78409995147908,
          -71.51055047066205
        ]
      }
    },
    {
      "type": "Feature",
      "properties": {
        "norad_id": 34117,
        "name": "COSMOS 2251 DEB",
        "group": "cosmos-2251-debris",
        "lat": 35.82357205674831,
        "lon": 139.03846924250988,
        "alt_km": 760.1478086957832,
        "timestamp": "2025-12-19T16:54:44.656921+00:00",
        "meta_object_name": "COSMOS 2251 DEB",
        "meta_object_id": "1993-036KN",
        "meta_epoch": "2025-12-19T01:15:09.699840",
        "meta_mean_motion": 14.40035827,
        "meta_eccentricity": 0.00547855,
        "meta_inclination": 74.0401,
        "meta_ra_of_asc_node": 332.1651,
        "meta_arg_of_pericenter": 46.7219,
        "meta_mean_anomaly": 313.8487,
        "meta_ephemeris_type": 0,
        "meta_classification_type": "U",
        "meta_norad_cat_id": 34117,
        "meta_element_set_no": 999,
        "meta_rev_at_epoch": 88214,
        "meta_bstar": 0.00051769776,
        "meta_mean_motion_dot": 1.635e-05,
        "meta_mean_motion_ddot": 0,
        "tle_line1": "1 34117U 93036KN  25353.05219560  .00001635  00000+0  51770-3 0  9990",
        "tle_line2": "2 34117  74.0401 332.1651 0054785  46.7219 313.8487 14.40035827882144"
      },
      "geometry": {
        "type": "Point",
        "coordinates": [
          139.03846924250988,
          35.82357205674831
        ]
      }
    },
    {
      "type": "Feature",
      "properties": {
        "norad_id": 34118,
        "name": "COSMOS 2251 DEB",
        "group": "cosmos-2251-debris",
        "lat": 49.76059001770701,
        "lon": 35.32184996879766,
        "alt_km": 561.2853033442934,
        "timestamp": "2025-12-19T16:54:44.656933+00:00",
        "meta_object_name": "COSMOS 2251 DEB",
        "meta_object_id": "1993-036KP",
        "meta_epoch": "2025-12-18T19:47:13.217856",
        "meta_mean_motion": 14.94148873,
        "meta_eccentricity": 0.00600655,
        "meta_inclination": 73.9521,
        "meta_ra_of_asc_node": 236.9887,
        "meta_arg_of_pericenter": 65.7247,
        "meta_mean_anomaly": 8.2872,
        "meta_ephemeris_type": 0,
        "meta_classification_type": "U",
        "meta_norad_cat_id": 34118,
        "meta_element_set_no": 999,
        "meta_rev_at_epoch": 89267,
        "meta_bstar": 0.0011183228,
        "meta_mean_motion_dot": 0.00012385,
        "meta_mean_motion_ddot": 0,
        "tle_line1": "1 34118U 93036KP  25352.82445854  .00012385  00000+0  11183-2 0  9999",
        "tle_line2": "2 34118  73.9521 236.9887 0060065  65.7247   8.2872 14.94148873892675"
      },
      "geometry": {
        "type": "Point",
        "coordinates": [
          35.32184996879766,
          49.76059001770701
        ]
      }
    },
    {
      "type": "Feature",
      "properties": {
        "norad_id": 34120,
        "name": "COSMOS 2251 DEB",
        "group": "cosmos-2251-debris",
        "lat": -53.45900354186129,
        "lon": -178.6372103636784,
        "alt_km": 895.4651053739062,
        "timestamp": "2025-12-19T16:54:44.656944+00:00",
        "meta_object_name": "COSMOS 2251 DEB",
        "meta_object_id": "1993-036KR",
        "meta_epoch": "2025-12-19T00:43:39.334368",
        "meta_mean_motion": 13.98690757,
        "meta_eccentricity": 0.01822258,
        "meta_inclination": 73.9905,
        "meta_ra_of_asc_node": 205.3246,
        "meta_arg_of_pericenter": 31.6112,
        "meta_mean_anomaly": 119.5131,
        "meta_ephemeris_type": 0,
        "meta_classification_type": "U",
        "meta_norad_cat_id": 34120,
        "meta_element_set_no": 999,
        "meta_rev_at_epoch": 86068,
        "meta_bstar": 0.00027880646,
        "meta_mean_motion_dot": 4.38e-06,
        "meta_mean_motion_ddot": 0,
        "tle_line1": "1 34120U 93036KR  25353.03031637  .00000438  00000+0  27881-3 0  9995",
        "tle_line2": "2 34120  73.9905 205.3246 0182225  31.6112 119.5131 13.98690757860685"
      },
      "geometry": {
        "type": "Point",
        "coordinates": [
          -178.6372103636784,
          -53.45900354186129
        ]
      }
    }
  ]
}